[{"OBJECT_NAME":"ONEWEB-0138","OBJECT_ID":"2020-100AC","EPOCH":"2026-03-09T20:47:36.747456","MEAN_MOTION":13.12443438,"ECCENTRICITY":0.0001993,"INCLINATION":87.9003,"RA_OF_ASC_NODE":10.376,"ARG_OF_PERICENTER":82.3784,"MEAN_ANOMALY":277.7571,"EPHEMERIS_TYPE":0,"CLASSIFICATION_TYPE":"U","NORAD_CAT_ID":47284,"ELEMENT_SET_NO":999,"REV_AT_EPOCH":25162,"BSTAR":-0.0011058627,"MEAN_MOTION_DOT":-3.85e-6,"MEAN_MOTION_DDOT":0},{"OBJECT_NAME":"COSMOS 2499 DEB","OBJECT_ID":"2014-028Q","EPOCH":"2026-03-09T03:27:52.430112","MEAN_MOTION":12.9325088,"ECCENTRICITY":0.02611867,"INCLINATION":82.5628,"RA_OF_ASC_NODE":321.464,"ARG_OF_PERICENTER":173.6516,"MEAN_ANOMALY":186.8014,"EPHEMERIS_TYPE":0,"CLASSIFICATION_TYPE":"U","NORAD_CAT_ID":49933,"ELEMENT_SET_NO":999,"REV_AT_EPOCH":20499,"BSTAR":0.0080288706,"MEAN_MOTION_DOT":2.572e-5,"MEAN_MOTION_DDOT":0}]
